[ {
  "OBJECT_ID": "1973-054A",
  "OBJECT_NAME": "OPS 8364 (DMSP 4)",
  "NORAD_CAT_ID": "6787",
  "OBJECT_TYPE": "PAYLOAD",
  "PERIOD": "100.586",
  "INCLINATION": "98.6877",
  "APOGEE": "805.824",
  "PERIGEE": "766.889",
  "ECCENTRICITY": "0.0027172",
  "MEAN_MOTION": "14.31609756",
  "TLE_LINE1": "1  6787U 73054A   16238.93772720 +.00000075 +00000-0 +44743-4 0  9992",
  "TLE_LINE2": "2  6787 098.6877 034.5100 0027172 119.8085 240.5804 14.31609756238995",
  "LAUNCH_DATE": "1973-08-17",
  "LAUNCH_SITE": "AIR FORCE WESTERN TEST RANGE",
  "OWNER": "UNITED STATES OF AMERICA",
  "ORBIT_TYPE": "Low Earth Orbit",
  "OPERATIONAL_STATUS": "Nonoperational"
}, {
  "OBJECT_ID": "1973-086A",
  "OBJECT_NAME": "NOAA 3",
  "NORAD_CAT_ID": "6920",
  "OBJECT_TYPE": "PAYLOAD",
  "PERIOD": "116.095",
  "INCLINATION": "101.8912",
  "APOGEE": "1509.946",
  "PERIGEE": "1500.256",
  "ECCENTRICITY": "0.0006146",
  "MEAN_MOTION": "12.40354749",
  "TLE_LINE1": "1 06920U 73086A   16239.54204498 -.00000026  00000-0  13164-3 0  9995",
  "TLE_LINE2": "2 06920 101.8912 209.1955 0006146 270.4503 198.0208 12.40354749938018",
  "LAUNCH_DATE": "1973-11-06",
  "LAUNCH_SITE": "AIR FORCE WESTERN TEST RANGE",
  "OWNER": "UNITED STATES OF AMERICA",
  "ORBIT_TYPE": "Low Earth Orbit",
  "OPERATIONAL_STATUS": "Nonoperational"
}, {
  "OBJECT_ID": "1974-015A",
  "OBJECT_NAME": "OPS 8579 (DMSP 5B F5)",
  "NORAD_CAT_ID": "7218",
  "OBJECT_TYPE": "PAYLOAD",
  "PERIOD": "100.663",
  "INCLINATION": "98.99",
  "APOGEE": "830.276",
  "PERIGEE": "749.781",
  "ECCENTRICITY": "0.0056147",
  "MEAN_MOTION": "14.30509897",
  "TLE_LINE1": "1 07218U 74015A   16239.21735798  .00000006  00000-0  20147-4 0  9992",
  "TLE_LINE2": "2 07218  98.9900 142.6278 0056147 266.7586  92.7171 14.30509897208933",
  "LAUNCH_DATE": "1974-03-16",
  "LAUNCH_SITE": "AIR FORCE WESTERN TEST RANGE",
  "OWNER": "UNITED STATES OF AMERICA",
  "ORBIT_TYPE": "Low Earth Orbit",
  "OPERATIONAL_STATUS": "Nonoperational"
}, {
  "OBJECT_ID": "1974-063A",
  "OBJECT_NAME": "OPS 6983 (DMSP 5C F1)",
  "NORAD_CAT_ID": "7411",
  "OBJECT_TYPE": "PAYLOAD",
  "PERIOD": "100.863",
  "INCLINATION": "98.7269",
  "APOGEE": "830.154",
  "PERIGEE": "768.900",
  "ECCENTRICITY": "0.004267",
  "MEAN_MOTION": "14.27671223",
  "TLE_LINE1": "1 07411U 74063A   16239.13034669  .00000054  00000-0  39664-4 0  9997",
  "TLE_LINE2": "2 07411  98.7269  59.9423 0042670  47.1457 313.3295 14.27671223183301",
  "LAUNCH_DATE": "1974-08-09",
  "LAUNCH_SITE": "AIR FORCE WESTERN TEST RANGE",
  "OWNER": "UNITED STATES OF AMERICA",
  "ORBIT_TYPE": "Low Earth Orbit",
  "OPERATIONAL_STATUS": "Nonoperational"
}, {
  "OBJECT_ID": "1974-089A",
  "OBJECT_NAME": "NOAA 4",
  "NORAD_CAT_ID": "7529",
  "OBJECT_TYPE": "PAYLOAD",
  "PERIOD": "114.914",
  "INCLINATION": "101.5922",
  "APOGEE": "1458.097",
  "PERIGEE": "1444.949",
  "ECCENTRICITY": "0.0008396",
  "MEAN_MOTION": "12.53108102",
  "TLE_LINE1": "1 07529U 74089A   16239.49879895 -.00000012  00000-0  20219-3 0  9992",
  "TLE_LINE2": "2 07529 101.5922 208.7387 0008396 231.0534 240.1321 12.53108102911124",
  "LAUNCH_DATE": "1974-11-15",
  "LAUNCH_SITE": "AIR FORCE WESTERN TEST RANGE",
  "OWNER": "UNITED STATES OF AMERICA",
  "ORBIT_TYPE": "Low Earth Orbit",
  "OPERATIONAL_STATUS": "Nonoperational"
}, {
  "OBJECT_ID": "1975-004A",
  "OBJECT_NAME": "LANDSAT 2",
  "NORAD_CAT_ID": "7615",
  "OBJECT_TYPE": "PAYLOAD",
  "PERIOD": "103.104",
  "INCLINATION": "98.8454",
  "APOGEE": "912.380",
  "PERIGEE": "898.540",
  "ECCENTRICITY": "0.0009501",
  "MEAN_MOTION": "13.96638676",
  "TLE_LINE1": "1 07615U 75004A   16238.71946058 -.00000257  00000-0 -15532-3 0  9990",
  "TLE_LINE2": "2 07615  98.8454 278.7137 0009501 118.9187 241.2930 13.96638676119304",
  "LAUNCH_DATE": "1975-01-22",
  "LAUNCH_SITE": "AIR FORCE WESTERN TEST RANGE",
  "OWNER": "UNITED STATES OF AMERICA",
  "ORBIT_TYPE": "Low Earth Orbit",
  "OPERATIONAL_STATUS": "Nonoperational"
}, {
  "OBJECT_ID": "1975-052A",
  "OBJECT_NAME": "NIMBUS 6",
  "NORAD_CAT_ID": "7924",
  "OBJECT_TYPE": "PAYLOAD",
  "PERIOD": "107.406",
  "INCLINATION": "100.2964",
  "APOGEE": "1112.332",
  "PERIGEE": "1101.036",
  "ECCENTRICITY": "0.0007546",
  "MEAN_MOTION": "13.40697326",
  "TLE_LINE1": "1  7924U 75052A   16238.77245793 -.00000043 +00000-0 +73632-5 0  9999",
  "TLE_LINE2": "2  7924 100.2964 106.0721 0007546 204.4506 198.6443 13.40697326016065",
  "LAUNCH_DATE": "1975-06-12",
  "LAUNCH_SITE": "AIR FORCE WESTERN TEST RANGE",
  "OWNER": "UNITED STATES OF AMERICA",
  "ORBIT_TYPE": "Low Earth Orbit",
  "OPERATIONAL_STATUS": "Nonoperational"
}, {
  "OBJECT_ID": "1975-082A",
  "OBJECT_NAME": "KIKU 1 (ETS 1)",
  "NORAD_CAT_ID": "8197",
  "OBJECT_TYPE": "PAYLOAD",
  "PERIOD": "105.921",
  "INCLINATION": "46.9872",
  "APOGEE": "1100.913",
  "PERIGEE": "974.110",
  "ECCENTRICITY": "0.0085497",
  "MEAN_MOTION": "13.59499909",
  "TLE_LINE1": "1 08197U 75082A   16239.43249873 -.00000110  00000-0  21142-4 0  9995",
  "TLE_LINE2": "2 08197  46.9872 214.7966 0085497 158.3536 318.5434 13.59499909 35310",
  "LAUNCH_DATE": "1975-09-09",
  "LAUNCH_SITE": "TANEGASHIMA SPACE CENTER",
  "OWNER": "JAPAN",
  "ORBIT_TYPE": "Low Earth Orbit",
  "OPERATIONAL_STATUS": "Nonoperational"
}, {
  "OBJECT_ID": "1976-019A",
  "OBJECT_NAME": "UME 1 (ISS 1)",
  "NORAD_CAT_ID": "8709",
  "OBJECT_TYPE": "PAYLOAD",
  "PERIOD": "105.004",
  "INCLINATION": "69.6744",
  "APOGEE": "1004.487",
  "PERIGEE": "984.833",
  "ECCENTRICITY": "0.0013329",
  "MEAN_MOTION": "13.71369467",
  "TLE_LINE1": "1  8709U 76019A   16238.92403213 -.00000034 +00000-0 +19576-4 0  9991",
  "TLE_LINE2": "2  8709 069.6744 039.3060 0013329 251.9605 272.5409 13.71369467025901",
  "LAUNCH_DATE": "1976-02-29",
  "LAUNCH_SITE": "TANEGASHIMA SPACE CENTER",
  "OWNER": "JAPAN",
  "ORBIT_TYPE": "Low Earth Orbit",
  "OPERATIONAL_STATUS": "Nonoperational"
}, {
  "OBJECT_ID": "1976-077A",
  "OBJECT_NAME": "NOAA 5",
  "NORAD_CAT_ID": "9057",
  "OBJECT_TYPE": "PAYLOAD",
  "PERIOD": "116.338",
  "INCLINATION": "101.7939",
  "APOGEE": "1524.004",
  "PERIGEE": "1508.158",
  "ECCENTRICITY": "0.0010036",
  "MEAN_MOTION": "12.37767885",
  "TLE_LINE1": "1 09057U 76077A   16239.48398068 -.00000047  00000-0 -33231-4 0  9994",
  "TLE_LINE2": "2 09057 101.7939 225.4522 0010036 116.6876 357.3175 12.37767885811544",
  "LAUNCH_DATE": "1976-07-29",
  "LAUNCH_SITE": "AIR FORCE WESTERN TEST RANGE",
  "OWNER": "UNITED STATES OF AMERICA",
  "ORBIT_TYPE": "Low Earth Orbit",
  "OPERATIONAL_STATUS": "Nonoperational"
}, {
  "OBJECT_ID": "1978-018A",
  "OBJECT_NAME": "UME 2 (ISS-B)",
  "NORAD_CAT_ID": "10674",
  "OBJECT_TYPE": "PAYLOAD",
  "PERIOD": "107.174",
  "INCLINATION": "69.3605",
  "APOGEE": "1217.027",
  "PERIGEE": "974.787",
  "ECCENTRICITY": "0.0162054",
  "MEAN_MOTION": "13.43598155",
  "TLE_LINE1": "1 10674U 78018A   16239.55667564 -.00000043  00000-0  11707-4 0  9995",
  "TLE_LINE2": "2 10674  69.3605 272.5955 0162054  36.0371 116.1748 13.43598155889807",
  "LAUNCH_DATE": "1978-02-16",
  "LAUNCH_SITE": "TANEGASHIMA SPACE CENTER",
  "OWNER": "JAPAN",
  "ORBIT_TYPE": "Low Earth Orbit",
  "OPERATIONAL_STATUS": "Nonoperational"
}, {
  "OBJECT_ID": "1978-026A",
  "OBJECT_NAME": "LANDSAT 3",
  "NORAD_CAT_ID": "10702",
  "OBJECT_TYPE": "PAYLOAD",
  "PERIOD": "103.104",
  "INCLINATION": "98.8208",
  "APOGEE": "915.518",
  "PERIGEE": "895.384",
  "ECCENTRICITY": "0.0013822",
  "MEAN_MOTION": "13.96641165",
  "TLE_LINE1": "1 10702U 78026A   16239.09200620 -.00000091  00000-0 -35410-4 0  9992",
  "TLE_LINE2": "2 10702  98.8208 274.1602 0013822 313.8562  99.2956 13.96641165961708",
  "LAUNCH_DATE": "1978-03-05",
  "LAUNCH_SITE": "AIR FORCE WESTERN TEST RANGE",
  "OWNER": "UNITED STATES OF AMERICA",
  "ORBIT_TYPE": "Low Earth Orbit",
  "OPERATIONAL_STATUS": "Nonoperational"
}, {
  "OBJECT_ID": "1978-026B",
  "OBJECT_NAME": "OSCAR 8",
  "NORAD_CAT_ID": "10703",
  "OBJECT_TYPE": "PAYLOAD",
  "PERIOD": "102.915",
  "INCLINATION": "98.8405",
  "APOGEE": "901.655",
  "PERIGEE": "891.438",
  "ECCENTRICITY": "0.0007022",
  "MEAN_MOTION": "13.99206298",
  "TLE_LINE1": "1 10703U 78026B   16239.54261152 -.00000253  00000-0 -14508-3 0  9994",
  "TLE_LINE2": "2 10703  98.8405 205.5985 0007022  73.4307  39.9018 13.99206298963384",
  "LAUNCH_DATE": "1978-03-05",
  "LAUNCH_SITE": "AIR FORCE WESTERN TEST RANGE",
  "OWNER": "UNITED STATES OF AMERICA",
  "ORBIT_TYPE": "Low Earth Orbit",
  "OPERATIONAL_STATUS": "Nonoperational"
}, {
  "OBJECT_ID": "1978-042A",
  "OBJECT_NAME": "OPS 6182 (DMSP 5D-1 F3)",
  "NORAD_CAT_ID": "10820",
  "OBJECT_TYPE": "PAYLOAD",
  "PERIOD": "100.347",
  "INCLINATION": "98.5625",
  "APOGEE": "781.554",
  "PERIGEE": "768.448",
  "ECCENTRICITY": "0.0009161",
  "MEAN_MOTION": "14.35020244",
  "TLE_LINE1": "1 10820U 78042A   16239.15433428  .00000088  00000-0  46298-4 0  9992",
  "TLE_LINE2": "2 10820  98.5625  63.8181 0009161 190.3058 169.7940 14.35020244999039",
  "LAUNCH_DATE": "1978-05-01",
  "LAUNCH_SITE": "AIR FORCE WESTERN TEST RANGE",
  "OWNER": "UNITED STATES OF AMERICA",
  "ORBIT_TYPE": "Low Earth Orbit",
  "OPERATIONAL_STATUS": "Nonoperational"
}, {
  "OBJECT_ID": "1978-064A",
  "OBJECT_NAME": "SEASAT 1",
  "NORAD_CAT_ID": "10967",
  "OBJECT_TYPE": "PAYLOAD",
  "PERIOD": "99.752",
  "INCLINATION": "108.0079",
  "APOGEE": "747.945",
  "PERIGEE": "745.494",
  "ECCENTRICITY": "0.000172",
  "MEAN_MOTION": "14.4357286",
  "TLE_LINE1": "1 10967U 78064A   16239.48513696  .00000002  00000-0  40955-4 0  9990",
  "TLE_LINE2": "2 10967 108.0079  43.6968 0001720 297.7273  62.3697 14.43572860  4077",
  "LAUNCH_DATE": "1978-06-27",
  "LAUNCH_SITE": "AIR FORCE WESTERN TEST RANGE",
  "OWNER": "UNITED STATES OF AMERICA",
  "ORBIT_TYPE": "Low Earth Orbit",
  "OPERATIONAL_STATUS": "Nonoperational"
}]